[{"OBJECT_NAME":"SES-2","OBJECT_ID":"2011-049A","EPOCH":"2026-03-06T04:16:38.860320","MEAN_MOTION":1.0027188,"ECCENTRICITY":0.00029092,"INCLINATION":0.0237,"RA_OF_ASC_NODE":76.2187,"ARG_OF_PERICENTER":270.4439,"MEAN_ANOMALY":154.3852,"EPHEMERIS_TYPE":0,"CLASSIFICATION_TYPE":"U","NORAD_CAT_ID":37809,"ELEMENT_SET_NO":999,"REV_AT_EPOCH":5293,"BSTAR":0,"MEAN_MOTION_DOT":-2.01e-6,"MEAN_MOTION_DDOT":0},{"OBJECT_NAME":"QUETZSAT 1","OBJECT_ID":"2011-054A","EPOCH":"2026-03-06T04:08:38.676768","MEAN_MOTION":1.00270897,"ECCENTRICITY":0.00028087,"INCLINATION":0.0497,"RA_OF_ASC_NODE":292.4662,"ARG_OF_PERICENTER":72.1609,"MEAN_ANOMALY":144.412,"EPHEMERIS_TYPE":0,"CLASSIFICATION_TYPE":"U","NORAD_CAT_ID":37826,"ELEMENT_SET_NO":999,"REV_AT_EPOCH":4884,"BSTAR":0,"MEAN_MOTION_DOT":-2.47e-6,"MEAN_MOTION_DDOT":0},{"OBJECT_NAME":"SES-4","OBJECT_ID":"2012-007A","EPOCH":"2026-03-05T10:28:09.470208","MEAN_MOTION":1.00260475,"ECCENTRICITY":0.0002347,"INCLINATION":0.0359,"RA_OF_ASC_NODE":66.5072,"ARG_OF_PERICENTER":256.9214,"MEAN_ANOMALY":334.7775,"EPHEMERIS_TYPE":0,"CLASSIFICATION_TYPE":"U","NORAD_CAT_ID":38087,"ELEMENT_SET_NO":999,"REV_AT_EPOCH":5118,"BSTAR":0,"MEAN_MOTION_DOT":-1.78e-6,"MEAN_MOTION_DDOT":0},{"OBJECT_NAME":"SES-5","OBJECT_ID":"2012-036A","EPOCH":"2026-03-05T20:52:00.995808","MEAN_MOTION":1.00271137,"ECCENTRICITY":0.00020596,"INCLINATION":0.0593,"RA_OF_ASC_NODE":310.9208,"ARG_OF_PERICENTER":30.8824,"MEAN_ANOMALY":139.762,"EPHEMERIS_TYPE":0,"CLASSIFICATION_TYPE":"U","NORAD_CAT_ID":38652,"ELEMENT_SET_NO":999,"REV_AT_EPOCH":4342,"BSTAR":0,"MEAN_MOTION_DOT":2.7e-7,"MEAN_MOTION_DDOT":0},{"OBJECT_NAME":"ASTRA 2F","OBJECT_ID":"2012-051A","EPOCH":"2026-03-06T03:49:25.960800","MEAN_MOTION":1.002764,"ECCENTRICITY":0.00023433,"INCLINATION":0.093,"RA_OF_ASC_NODE":260.2006,"ARG_OF_PERICENTER":10.4238,"MEAN_ANOMALY":338.8298,"EPHEMERIS_TYPE":0,"CLASSIFICATION_TYPE":"U","NORAD_CAT_ID":38778,"ELEMENT_SET_NO":999,"REV_AT_EPOCH":4010,"BSTAR":0,"MEAN_MOTION_DOT":1.45e-6,"MEAN_MOTION_DDOT":0},{"OBJECT_NAME":"SES-6","OBJECT_ID":"2013-026A","EPOCH":"2026-03-06T06:55:08.154048","MEAN_MOTION":1.00271689,"ECCENTRICITY":0.00018556,"INCLINATION":0.0619,"RA_OF_ASC_NODE":290.2414,"ARG_OF_PERICENTER":66.6496,"MEAN_ANOMALY":230.3824,"EPHEMERIS_TYPE":0,"CLASSIFICATION_TYPE":"U","NORAD_CAT_ID":39172,"ELEMENT_SET_NO":999,"REV_AT_EPOCH":4669,"BSTAR":0,"MEAN_MOTION_DOT":-2.66e-6,"MEAN_MOTION_DDOT":0},{"OBJECT_NAME":"O3B FM5","OBJECT_ID":"2013-031A","EPOCH":"2026-03-06T02:18:58.226400","MEAN_MOTION":5.00116473,"ECCENTRICITY":0.0003333,"INCLINATION":0.098,"RA_OF_ASC_NODE":13.5954,"ARG_OF_PERICENTER":322.146,"MEAN_ANOMALY":24.2376,"EPHEMERIS_TYPE":0,"CLASSIFICATION_TYPE":"U","NORAD_CAT_ID":39188,"ELEMENT_SET_NO":999,"REV_AT_EPOCH":23188,"BSTAR":0,"MEAN_MOTION_DOT":-2.6e-7,"MEAN_MOTION_DDOT":0},{"OBJECT_NAME":"O3B FM4","OBJECT_ID":"2013-031B","EPOCH":"2026-03-05T19:34:52.364640","MEAN_MOTION":5.0011522,"ECCENTRICITY":0.00050843,"INCLINATION":0.0553,"RA_OF_ASC_NODE":345.1263,"ARG_OF_PERICENTER":8.8542,"MEAN_ANOMALY":6.0077,"EPHEMERIS_TYPE":0,"CLASSIFICATION_TYPE":"U","NORAD_CAT_ID":39189,"ELEMENT_SET_NO":999,"REV_AT_EPOCH":23187,"BSTAR":0,"MEAN_MOTION_DOT":-2.6e-7,"MEAN_MOTION_DDOT":0},{"OBJECT_NAME":"O3B FM2","OBJECT_ID":"2013-031C","EPOCH":"2026-03-06T01:57:17.779392","MEAN_MOTION":5.00116024,"ECCENTRICITY":0.00028275,"INCLINATION":0.0562,"RA_OF_ASC_NODE":338.9132,"ARG_OF_PERICENTER":5.0674,"MEAN_ANOMALY":16.0049,"EPHEMERIS_TYPE":0,"CLASSIFICATION_TYPE":"U","NORAD_CAT_ID":39190,"ELEMENT_SET_NO":999,"REV_AT_EPOCH":23195,"BSTAR":0,"MEAN_MOTION_DOT":-2.6e-7,"MEAN_MOTION_DDOT":0},{"OBJECT_NAME":"O3B PFM","OBJECT_ID":"2013-031D","EPOCH":"2026-03-06T02:17:37.197024","MEAN_MOTION":5.00115906,"ECCENTRICITY":0.00051477,"INCLINATION":0.0668,"RA_OF_ASC_NODE":7.2787,"ARG_OF_PERICENTER":352.3292,"MEAN_ANOMALY":0.3862,"EPHEMERIS_TYPE":0,"CLASSIFICATION_TYPE":"U","NORAD_CAT_ID":39191,"ELEMENT_SET_NO":999,"REV_AT_EPOCH":23151,"BSTAR":0,"MEAN_MOTION_DOT":-2.6e-7,"MEAN_MOTION_DDOT":0},{"OBJECT_NAME":"ASTRA 2E","OBJECT_ID":"2013-056A","EPOCH":"2026-03-06T03:49:25.960800","MEAN_MOTION":1.00272924,"ECCENTRICITY":0.00021834,"INCLINATION":0.0723,"RA_OF_ASC_NODE":33.8083,"ARG_OF_PERICENTER":305.9816,"MEAN_ANOMALY":269.9212,"EPHEMERIS_TYPE":0,"CLASSIFICATION_TYPE":"U","NORAD_CAT_ID":39285,"ELEMENT_SET_NO":999,"REV_AT_EPOCH":4538,"BSTAR":0,"MEAN_MOTION_DOT":1.45e-6,"MEAN_MOTION_DDOT":0},{"OBJECT_NAME":"SES-8","OBJECT_ID":"2013-071A","EPOCH":"2026-03-05T23:00:26.180640","MEAN_MOTION":1.00272617,"ECCENTRICITY":0.00017176,"INCLINATION":0.0543,"RA_OF_ASC_NODE":271.6608,"ARG_OF_PERICENTER":100.3856,"MEAN_ANOMALY":231.7396,"EPHEMERIS_TYPE":0,"CLASSIFICATION_TYPE":"U","NORAD_CAT_ID":39460,"ELEMENT_SET_NO":999,"REV_AT_EPOCH":4340,"BSTAR":0,"MEAN_MOTION_DOT":-2.75e-6,"MEAN_MOTION_DDOT":0},{"OBJECT_NAME":"ASTRA 5B","OBJECT_ID":"2014-011B","EPOCH":"2026-03-06T05:30:46.244160","MEAN_MOTION":1.00271993,"ECCENTRICITY":0.00040469,"INCLINATION":0.0872,"RA_OF_ASC_NODE":300.4648,"ARG_OF_PERICENTER":28.2198,"MEAN_ANOMALY":301.4298,"EPHEMERIS_TYPE":0,"CLASSIFICATION_TYPE":"U","NORAD_CAT_ID":39617,"ELEMENT_SET_NO":999,"REV_AT_EPOCH":4363,"BSTAR":0,"MEAN_MOTION_DOT":1.32e-6,"MEAN_MOTION_DDOT":0},{"OBJECT_NAME":"O3B FM3","OBJECT_ID":"2014-038A","EPOCH":"2026-03-05T23:05:42.865152","MEAN_MOTION":5.00115599,"ECCENTRICITY":6.291e-5,"INCLINATION":0.053,"RA_OF_ASC_NODE":353.4607,"ARG_OF_PERICENTER":56.5269,"MEAN_ANOMALY":310.0124,"EPHEMERIS_TYPE":0,"CLASSIFICATION_TYPE":"U","NORAD_CAT_ID":40079,"ELEMENT_SET_NO":999,"REV_AT_EPOCH":20788,"BSTAR":0,"MEAN_MOTION_DOT":-2.6e-7,"MEAN_MOTION_DDOT":0},{"OBJECT_NAME":"O3B FM7","OBJECT_ID":"2014-038B","EPOCH":"2026-03-02T07:26:54.646080","MEAN_MOTION":5.00115622,"ECCENTRICITY":0.00044887,"INCLINATION":0.0588,"RA_OF_ASC_NODE":348.9474,"ARG_OF_PERICENTER":339.4059,"MEAN_ANOMALY":31.6123,"EPHEMERIS_TYPE":0,"CLASSIFICATION_TYPE":"U","NORAD_CAT_ID":40080,"ELEMENT_SET_NO":999,"REV_AT_EPOCH":21253,"BSTAR":0,"MEAN_MOTION_DOT":-2.9e-7,"MEAN_MOTION_DDOT":0},{"OBJECT_NAME":"O3B FM6","OBJECT_ID":"2014-038C","EPOCH":"2026-03-05T22:26:58.174656","MEAN_MOTION":5.0011572,"ECCENTRICITY":0.00026588,"INCLINATION":0.0549,"RA_OF_ASC_NODE":351.2735,"ARG_OF_PERICENTER":350.6773,"MEAN_ANOMALY":18.0342,"EPHEMERIS_TYPE":0,"CLASSIFICATION_TYPE":"U","NORAD_CAT_ID":40081,"ELEMENT_SET_NO":999,"REV_AT_EPOCH":21266,"BSTAR":0,"MEAN_MOTION_DOT":-2.6e-7,"MEAN_MOTION_DDOT":0},{"OBJECT_NAME":"O3B FM8","OBJECT_ID":"2014-038D","EPOCH":"2026-03-04T14:08:51.008064","MEAN_MOTION":5.00115977,"ECCENTRICITY":0.0002658,"INCLINATION":0.0558,"RA_OF_ASC_NODE":350.6431,"ARG_OF_PERICENTER":354.8269,"MEAN_ANOMALY":14.516,"EPHEMERIS_TYPE":0,"CLASSIFICATION_TYPE":"U","NORAD_CAT_ID":40082,"ELEMENT_SET_NO":999,"REV_AT_EPOCH":21271,"BSTAR":0,"MEAN_MOTION_DOT":-2.7e-7,"MEAN_MOTION_DDOT":0}]
